{"type":"FeatureCollection","name":"Spain autonomous communities simplified offline fallback","features":[{"type":"Feature","properties":{"regionId":"GAL","name":"Galicia","approximateFallback":true},"geometry":{"type":"Polygon","coordinates":[[[-9.1452,43.365],[-7.1853,43.75],[-6.2642,43.0302],[-6.6562,41.9422],[-8.3613,41.6911],[-9.4,42.4444],[-9.1452,43.365]]]}},{"type":"Feature","properties":{"regionId":"AST","name":"Asturias","approximateFallback":true},"geometry":{"type":"Polygon","coordinates":[[[-7.1853,43.75],[-5.0295,43.6998],[-4.5787,42.662],[-6.2642,42.4779],[-6.2642,43.0302],[-7.1853,43.75]]]}},{"type":"Feature","properties":{"regionId":"CNT","name":"Cantabria","approximateFallback":true},"geometry":{"type":"Polygon","coordinates":[[[-5.0295,43.6998],[-3.5596,43.5659],[-3.2656,42.6118],[-4.5787,42.662],[-5.0295,43.6998]]]}},{"type":"Feature","properties":{"regionId":"PVA","name":"País Vasco","approximateFallback":true},"geometry":{"type":"Polygon","coordinates":[[[-3.5596,43.5659],[-1.9917,43.4822],[-1.6389,42.5281],[-3.2656,42.6118],[-3.5596,43.5659]]]}},{"type":"Feature","properties":{"regionId":"NAV","name":"Navarra","approximateFallback":true},"geometry":{"type":"Polygon","coordinates":[[[-1.9917,43.4822],[-0.7177,43.0805],[-0.9137,41.6911],[-1.6389,42.5281],[-1.9917,43.4822]]]}},{"type":"Feature","properties":{"regionId":"RIO","name":"La Rioja","approximateFallback":true},"geometry":{"type":"Polygon","coordinates":[[[-3.2656,42.6118],[-1.6389,42.5281],[-1.7957,41.6911],[-3.3636,41.7748],[-3.2656,42.6118]]]}},{"type":"Feature","properties":{"regionId":"CYL","name":"Castilla y León","approximateFallback":true},"geometry":{"type":"Polygon","coordinates":[[[-8.3613,41.6911],[-6.2642,42.4779],[-3.2656,42.6118],[-3.3636,41.7748],[-2.9716,40.4357],[-6.6954,40.2684],[-7.9693,41.0216],[-8.3613,41.6911]]]}},{"type":"Feature","properties":{"regionId":"ARA","name":"Aragón","approximateFallback":true},"geometry":{"type":"Polygon","coordinates":[[[-1.7957,41.6911],[0.3602,42.1096],[1.1441,39.9336],[-1.1097,39.6825],[-2.9716,40.4357],[-3.3636,41.7748],[-1.7957,41.6911]]]}},{"type":"Feature","properties":{"regionId":"CAT","name":"Cataluña","approximateFallback":true},"geometry":{"type":"Polygon","coordinates":[[[0.3602,42.1096],[2.908,41.8585],[3.3,40.101],[1.1441,39.9336],[0.3602,42.1096]]]}},{"type":"Feature","properties":{"regionId":"MAD","name":"Comunidad de Madrid","approximateFallback":true},"geometry":{"type":"Polygon","coordinates":[[[-4.6375,40.5194],[-3.2656,40.6868],[-2.9716,39.6825],[-4.3435,39.5151],[-4.6375,40.5194]]]}},{"type":"Feature","properties":{"regionId":"CLM","name":"Castilla-La Mancha","approximateFallback":true},"geometry":{"type":"Polygon","coordinates":[[[-6.6954,40.2684],[-4.6375,40.5194],[-4.3435,39.5151],[-1.1097,39.6825],[-1.1097,38.2597],[-4.9315,38.0086],[-6.4994,38.9293],[-6.6954,40.2684]]]}},{"type":"Feature","properties":{"regionId":"VAL","name":"Comunitat Valenciana","approximateFallback":true},"geometry":{"type":"Polygon","coordinates":[[[-1.1097,39.6825],[1.1441,39.9336],[0.9481,38.0923],[-0.4238,37.6739],[-1.1097,38.2597],[-1.1097,39.6825]]]}},{"type":"Feature","properties":{"regionId":"EXT","name":"Extremadura","approximateFallback":true},"geometry":{"type":"Polygon","coordinates":[[[-7.9693,41.0216],[-6.6954,40.2684],[-6.4994,38.9293],[-4.9315,38.0086],[-7.1853,37.7576],[-8.3613,38.8456],[-7.9693,41.0216]]]}},{"type":"Feature","properties":{"regionId":"MUR","name":"Región de Murcia","approximateFallback":true},"geometry":{"type":"Polygon","coordinates":[[[-1.1097,38.2597],[-0.4238,37.6739],[-0.6198,36.8369],[-1.8937,37.0043],[-1.1097,38.2597]]]}},{"type":"Feature","properties":{"regionId":"AND","name":"Andalucía","approximateFallback":true},"geometry":{"type":"Polygon","coordinates":[[[-7.1853,37.7576],[-4.9315,38.0086],[-1.8937,37.0043],[-2.2856,36.0],[-7.1853,36.1674],[-8.6552,37.1717],[-7.1853,37.7576]]]}},{"type":"Feature","properties":{"regionId":"BAL","name":"Illes Balears","approximateFallback":true},"geometry":{"type":"Polygon","coordinates":[[[2.516,39.264],[3.692,39.5151],[4.2799,38.8456],[3.202,38.4271],[2.516,39.264]]]}},{"type":"Feature","properties":{"regionId":"CAN","name":"Canarias","approximateFallback":true},"geometry":{"type":"Polygon","coordinates":[[[-16.1332,28.0554],[-15.4472,28.3065],[-14.8593,27.888],[-15.408,27.4695],[-16.192,27.5532],[-16.1332,28.0554]]]}}]}